{"type": "FeatureCollection", "features": [{"type": "Feature", "properties": {"norad_id": 22490, "name": "SCD 1", "group": "resource", "lat": 21.055975688342574, "lon": 23.066488972009846, "alt_km": 749.6174285693041, "timestamp": "2025-12-15T22:44:28.579655+00:00", "meta": {"OBJECT_NAME": "SCD 1", "OBJECT_ID": "1993-009B", "EPOCH": "2025-12-15T02:24:41.135040", "MEAN_MOTION": 14.4600068, "ECCENTRICITY": 0.00418928, "INCLINATION": 24.9694, "RA_OF_ASC_NODE": 264.1148, "ARG_OF_PERICENTER": 350.0786, "MEAN_ANOMALY": 32.6006, "EPHEMERIS_TYPE": 0, "CLASSIFICATION_TYPE": "U", "NORAD_CAT_ID": 22490, "ELEMENT_SET_NO": 999, "REV_AT_EPOCH": 73444, "BSTAR": 9.5888983e-05, "MEAN_MOTION_DOT": 5.36e-06, "MEAN_MOTION_DDOT": 0}, "tle": {"line1": "1 22490U 93009B   25349.10047610  .00000536  00000+0  95889-4 0  9996", "line2": "2 22490  24.9694 264.1148 0041892 350.0786  32.6006 14.46000680734440"}}, "geometry": {"type": "Point", "coordinates": [23.066488972009846, 21.055975688342574]}}, {"type": "Feature", "properties": {"norad_id": 25397, "name": "TECHSAT 1B (GO-32)", "group": "resource", "lat": 47.8923688769761, "lon": -36.856411055902704, "alt_km": 804.8264365204359, "timestamp": "2025-12-15T22:44:28.579699+00:00", "meta": {"OBJECT_NAME": "TECHSAT 1B (GO-32)", "OBJECT_ID": "1998-043D", "EPOCH": "2025-12-14T22:54:39.860928", "MEAN_MOTION": 14.24377663, "ECCENTRICITY": 0.00019992, "INCLINATION": 98.9921, "RA_OF_ASC_NODE": 332.2179, "ARG_OF_PERICENTER": 53.7481, "MEAN_ANOMALY": 306.3881, "EPHEMERIS_TYPE": 0, "CLASSIFICATION_TYPE": "U", "NORAD_CAT_ID": 25397, "ELEMENT_SET_NO": 999, "REV_AT_EPOCH": 42510, "BSTAR": 6.7884075e-05, "MEAN_MOTION_DOT": 1.1e-06, "MEAN_MOTION_DDOT": 0}, "tle": {"line1": "1 25397U 98043D   25348.95462802  .00000110  00000+0  67884-4 0  9996", "line2": "2 25397  98.9921 332.2179 0001999  53.7481 306.3881 14.24377663425103"}}, "geometry": {"type": "Point", "coordinates": [-36.856411055902704, 47.8923688769761]}}, {"type": "Feature", "properties": {"norad_id": 25504, "name": "SCD 2", "group": "resource", "lat": 13.418691658518082, "lon": -88.68623046198574, "alt_km": 747.8654561319345, "timestamp": "2025-12-15T22:44:28.579717+00:00", "meta": {"OBJECT_NAME": "SCD 2", "OBJECT_ID": "1998-060A", "EPOCH": "2025-12-15T02:55:22.597248", "MEAN_MOTION": 14.45424572, "ECCENTRICITY": 0.00167465, "INCLINATION": 24.9937, "RA_OF_ASC_NODE": 127.2075, "ARG_OF_PERICENTER": 338.9672, "MEAN_ANOMALY": 181.9784, "EPHEMERIS_TYPE": 0, "CLASSIFICATION_TYPE": "U", "NORAD_CAT_ID": 25504, "ELEMENT_SET_NO": 999, "REV_AT_EPOCH": 43366, "BSTAR": 7.4214235e-05, "MEAN_MOTION_DOT": 4.48e-06, "MEAN_MOTION_DDOT": 0}, "tle": {"line1": "1 25504U 98060A   25349.12178932  .00000448  00000+0  74214-4 0  9992", "line2": "2 25504  24.9937 127.2075 0016746 338.9672 181.9784 14.45424572433666"}}, "geometry": {"type": "Point", "coordinates": [-88.68623046198574, 13.418691658518082]}}, {"type": "Feature", "properties": {"norad_id": 25757, "name": "DLR-TUBSAT", "group": "resource", "lat": -49.10369409019203, "lon": 144.42963658456566, "alt_km": 717.9754560905967, "timestamp": "2025-12-15T22:44:28.579731+00:00", "meta": {"OBJECT_NAME": "DLR-TUBSAT", "OBJECT_ID": "1999-029B", "EPOCH": "2025-12-15T06:48:21.183264", "MEAN_MOTION": 14.52358711, "ECCENTRICITY": 0.00140632, "INCLINATION": 98.6565, "RA_OF_ASC_NODE": 333.8759, "ARG_OF_PERICENTER": 184.8971, "MEAN_ANOMALY": 175.2088, "EPHEMERIS_TYPE": 0, "CLASSIFICATION_TYPE": "U", "NORAD_CAT_ID": 25757, "ELEMENT_SET_NO": 999, "REV_AT_EPOCH": 40655, "BSTAR": 4.9936524e-05, "MEAN_MOTION_DOT": 1.55e-06, "MEAN_MOTION_DDOT": 0}, "tle": {"line1": "1 25757U 99029B   25349.28357851  .00000155  00000+0  49937-4 0  9993", "line2": "2 25757  98.6565 333.8759 0014063 184.8971 175.2088 14.52358711406555"}}, "geometry": {"type": "Point", "coordinates": [144.42963658456566, -49.10369409019203]}}, {"type": "Feature", "properties": {"norad_id": 25994, "name": "TERRA", "group": "resource", "lat": 30.767372258735225, "lon": 36.726953792011, "alt_km": 687.1913511766588, "timestamp": "2025-12-15T22:44:28.579744+00:00", "meta": {"OBJECT_NAME": "TERRA", "OBJECT_ID": "1999-068A", "EPOCH": "2025-12-15T08:01:42.322368", "MEAN_MOTION": 14.60904832, "ECCENTRICITY": 0.00036002, "INCLINATION": 97.9747, "RA_OF_ASC_NODE": 40.9238, "ARG_OF_PERICENTER": 89.4268, "MEAN_ANOMALY": 319.6206, "EPHEMERIS_TYPE": 0, "CLASSIFICATION_TYPE": "U", "NORAD_CAT_ID": 25994, "ELEMENT_SET_NO": 999, "REV_AT_EPOCH": 38276, "BSTAR": 0.00011377192, "MEAN_MOTION_DOT": 5.12e-06, "MEAN_MOTION_DDOT": 0}, "tle": {"line1": "1 25994U 99068A   25349.33451762  .00000512  00000+0  11377-3 0  9994", "line2": "2 25994  97.9747  40.9238 0003600  89.4268 319.6206 14.60904832382766"}}, "geometry": {"type": "Point", "coordinates": [36.726953792011, 30.767372258735225]}}, {"type": "Feature", "properties": {"norad_id": 27004, "name": "MAROC-TUBSAT", "group": "resource", "lat": 53.83715782128902, "lon": 144.78277038136784, "alt_km": 1007.0060732356696, "timestamp": "2025-12-15T22:44:28.579756+00:00", "meta": {"OBJECT_NAME": "MAROC-TUBSAT", "OBJECT_ID": "2001-056D", "EPOCH": "2025-12-15T08:46:02.608608", "MEAN_MOTION": 13.70253021, "ECCENTRICITY": 0.00191151, "INCLINATION": 99.7912, "RA_OF_ASC_NODE": 157.8562, "ARG_OF_PERICENTER": 253.1343, "MEAN_ANOMALY": 171.2056, "EPHEMERIS_TYPE": 0, "CLASSIFICATION_TYPE": "U", "NORAD_CAT_ID": 27004, "ELEMENT_SET_NO": 999, "REV_AT_EPOCH": 20101, "BSTAR": 3.6342749e-05, "MEAN_MOTION_DOT": -1.5e-07, "MEAN_MOTION_DDOT": 0}, "tle": {"line1": "1 27004U 01056D   25349.36530797 -.00000015  00000+0  36343-4 0  9997", "line2": "2 27004  99.7912 157.8562 0019115 253.1343 171.2056 13.70253021201014"}}, "geometry": {"type": "Point", "coordinates": [144.78277038136784, 53.83715782128902]}}, {"type": "Feature", "properties": {"norad_id": 27424, "name": "AQUA", "group": "resource", "lat": -79.13984702739349, "lon": 1.28550982652422, "alt_km": 695.4539980382715, "timestamp": "2025-12-15T22:44:28.579768+00:00", "meta": {"OBJECT_NAME": "AQUA", "OBJECT_ID": "2002-022A", "EPOCH": "2025-12-15T08:51:58.409856", "MEAN_MOTION": 14.61815411, "ECCENTRICITY": 0.00011892, "INCLINATION": 98.404, "RA_OF_ASC_NODE": 310.2912, "ARG_OF_PERICENTER": 114.3209, "MEAN_ANOMALY": 1.9707, "EPHEMERIS_TYPE": 0, "CLASSIFICATION_TYPE": "U", "NORAD_CAT_ID": 27424, "ELEMENT_SET_NO": 999, "REV_AT_EPOCH": 25641, "BSTAR": 0.00023954517, "MEAN_MOTION_DOT": 1.147e-05, "MEAN_MOTION_DDOT": 0}, "tle": {"line1": "1 27424U 02022A   25349.36942604  .00001147  00000+0  23955-3 0  9991", "line2": "2 27424  98.4040 310.2912 0001189 114.3209   1.9707 14.61815411256417"}}, "geometry": {"type": "Point", "coordinates": [1.28550982652422, -79.13984702739349]}}, {"type": "Feature", "properties": {"norad_id": 28051, "name": "IRS-P6 (RESOURCESAT-1)", "group": "resource", "lat": -24.733357541323542, "lon": -153.61100631624782, "alt_km": 738.7561447704657, "timestamp": "2025-12-15T22:44:28.579780+00:00", "meta": {"OBJECT_NAME": "IRS-P6 (RESOURCESAT-1)", "OBJECT_ID": "2003-046A", "EPOCH": "2025-12-15T08:42:03.375648", "MEAN_MOTION": 14.3607647, "ECCENTRICITY": 0.00642944, "INCLINATION": 98.2182, "RA_OF_ASC_NODE": 29.6483, "ARG_OF_PERICENTER": 172.8066, "MEAN_ANOMALY": 248.985, "EPHEMERIS_TYPE": 0, "CLASSIFICATION_TYPE": "U", "NORAD_CAT_ID": 28051, "ELEMENT_SET_NO": 999, "REV_AT_EPOCH": 15414, "BSTAR": 9.1832264e-05, "MEAN_MOTION_DOT": 2.33e-06, "MEAN_MOTION_DDOT": 0}, "tle": {"line1": "1 28051U 03046A   25349.36253907  .00000233  00000+0  91832-4 0  9991", "line2": "2 28051  98.2182  29.6483 0064294 172.8066 248.9850 14.36076470154144"}}, "geometry": {"type": "Point", "coordinates": [-153.61100631624782, -24.733357541323542]}}, {"type": "Feature", "properties": {"norad_id": 28220, "name": "SHIYAN-1 (SY-1)", "group": "resource", "lat": 59.31468600284563, "lon": 38.153704639569106, "alt_km": 476.48579752785645, "timestamp": "2025-12-15T22:44:28.579792+00:00", "meta": {"OBJECT_NAME": "SHIYAN-1 (SY-1)", "OBJECT_ID": "2004-012A", "EPOCH": "2025-12-15T03:37:16.349952", "MEAN_MOTION": 15.28214366, "ECCENTRICITY": 0.00055202, "INCLINATION": 97.8937, "RA_OF_ASC_NODE": 50.8316, "ARG_OF_PERICENTER": 316.2809, "MEAN_ANOMALY": 43.7992, "EPHEMERIS_TYPE": 0, "CLASSIFICATION_TYPE": "U", "NORAD_CAT_ID": 28220, "ELEMENT_SET_NO": 999, "REV_AT_EPOCH": 18293, "BSTAR": 0.00032272129, "MEAN_MOTION_DOT": 8.796e-05, "MEAN_MOTION_DDOT": 0}, "tle": {"line1": "1 28220U 04012A   25349.15088368  .00008796  00000+0  32272-3 0  9991", "line2": "2 28220  97.8937  50.8316 0005520 316.2809  43.7992 15.28214366182938"}}, "geometry": {"type": "Point", "coordinates": [38.153704639569106, 59.31468600284563]}}, {"type": "Feature", "properties": {"norad_id": 28376, "name": "AURA", "group": "resource", "lat": 37.65924375775738, "lon": -66.29465997401559, "alt_km": 686.8039606952952, "timestamp": "2025-12-15T22:44:28.579804+00:00", "meta": {"OBJECT_NAME": "AURA", "OBJECT_ID": "2004-026A", "EPOCH": "2025-12-15T07:46:25.337568", "MEAN_MOTION": 14.609529, "ECCENTRICITY": 0.00012898, "INCLINATION": 98.3187, "RA_OF_ASC_NODE": 299.5624, "ARG_OF_PERICENTER": 93.73, "MEAN_ANOMALY": 266.4047, "EPHEMERIS_TYPE": 0, "CLASSIFICATION_TYPE": "U", "NORAD_CAT_ID": 28376, "ELEMENT_SET_NO": 999, "REV_AT_EPOCH": 13936, "BSTAR": 0.00024192587, "MEAN_MOTION_DOT": 1.137e-05, "MEAN_MOTION_DDOT": 0}, "tle": {"line1": "1 28376U 04026A   25349.32390437  .00001137  00000+0  24193-3 0  9995", "line2": "2 28376  98.3187 299.5624 0001289  93.7300 266.4047 14.60952900139360"}}, "geometry": {"type": "Point", "coordinates": [-66.29465997401559, 37.65924375775738]}}]}